#aV2010  6  5  0  0   .00000000      96 DD+AD WGS84 FIT  NGA
## 1586 518400.00000000   900.00000000 55352  .0000000000000
+   31     1  2  3  4  5  6  7  8  9 10 11 12 13 14 15 16 17
+         18 19 20 21 22 23 24 26 27 28 29 30 31 32  0  0  0
+          0  0  0  0  0  0  0  0  0  0  0  0  0  0  0  0  0
+          0  0  0  0  0  0  0  0  0  0  0  0  0  0  0  0  0
+          0  0  0  0  0  0  0  0  0  0  0  0  0  0  0  0  0
++         0  0  0  0  0  0  0  0  0  0  0  0  0  0  0  0  0
++         0  0  0  0  0  0  0  0  0  0  0  0  0  0  0  0  0
++         0  0  0  0  0  0  0  0  0  0  0  0  0  0  0  0  0
++         0  0  0  0  0  0  0  0  0  0  0  0  0  0  0  0  0
++         0  0  0  0  0  0  0  0  0  0  0  0  0  0  0  0  0
%c cc cc ccc ccc cccc cccc cccc cccc ccccc ccccc ccccc ccccc
%c cc cc ccc ccc cccc cccc cccc cccc ccccc ccccc ccccc ccccc
%f  0.0000000  0.000000000  0.00000000000  0.000000000000000
%f  0.0000000  0.000000000  0.00000000000  0.000000000000000
%i    0    0    0    0      0      0      0      0         0
%i    0    0    0    0      0      0      0      0         0
/*      NGA, ST. LOUIS,MO.                                  
/*   EPHEMERIS COMPUTED FROM  3 DAYS OF DATA                
/* CCCCCCCCCCCCCCCCCCCCCCCCCCCCCCCCCCCCCCCCCCCCCCCCCCCCCCCCC
/* CCCCCCCCCCCCCCCCCCCCCCCCCCCCCCCCCCCCCCCCCCCCCCCCCCCCCCCCC
*  2010  6  5 18  0   .00000000                                                 
P  1   7926.875573 -24680.611461   5352.833809   -127.545140                    
V  1   1533.712741   7323.071758  30961.835610      -.040321                    
P  2   9937.031180  20789.904175  13579.070668    262.042866                    
V  2 -14837.596383  -8923.054609  24024.418062       .033001                    
P  3  -5148.922480 -15384.445746 -21374.107065    564.418850                    
V  3  23778.777207 -11612.449328   3023.195641       .049508                    
P  4  -4816.040996  15688.255724  20651.437089     97.533261                    
V  4 -21188.074016 -16386.635337   7801.699001       .081432                    
P  5   3385.646802  24119.046898 -10511.286325     -5.768784                    
V  5  -4794.476233  12732.107429  27794.851143      -.018246                    
P  6    583.684695 -16678.529619 -20453.069280    617.632357                    
V  6  24818.627870  -9387.752336   8439.756694      -.123013                    
P  7 -19942.017546  -1055.982977 -17610.128689     -1.027096                    
V  7 -16140.317575 -15364.570396  19045.770746      -.002300                    
P  8 -11705.587673   8810.613913 -22195.469409      5.668367                    
V  8 -20233.413313 -19393.036087   2461.289477       .001104                    
P  9  21065.758865  16177.172652    515.218952     10.771593                    
V  9   -307.958142   2512.640109 -32159.879058       .023442                    
P 10  -4238.145823  26004.862349  -1210.327746    -43.953893                    
V 10  -3538.944168    663.720384  31772.893784      -.007226                    
P 11 -24725.914381  -9758.629798   2769.010050    -67.095408                    
V 11  -1330.206880  -5935.557668 -29571.104289      -.024431                    
P 12  12890.236575   9789.764772  21134.274886   -107.405106                    
V 12  -5408.823387  26115.231108  -8666.579001       .041508                    
P 13 -25786.219663   4346.555591   4619.659065    303.637662                    
V 13   5294.953521  -3359.339408  31713.909737      -.004502                    
P 14  17472.354354 -14826.028051  13452.726347     53.735432                    
V 14  16582.214743  -3474.331446 -25752.799682       .042275                    
P 15  14223.700864   9851.669224 -20170.224767   -261.387400                    
V 15 -23528.174002  10225.597265 -11472.506787       .064377                    
P 16   1344.510159 -25779.647454  -5546.240663    -78.552184                    
V 16   3971.302868  -6482.768937  31143.540949      -.037188                    
P 17 -18410.128650  14997.627098  11782.461639    155.048534                    
V 17 -14897.721998   2415.008958 -26795.756426       .020704                    
P 18  15819.154818  -9671.335711 -18605.539567     72.769767                    
V 18  -2759.891211  24326.876316 -15155.979300       .024028                    
P 19 -14783.873427 -10201.408962 -19633.485967    -40.085686                    
V 19  23688.321394  -7795.902953 -13456.920504      -.027582                    
P 20 -14523.181790  -7116.850452  20938.642511     55.076001                    
V 20   4425.877228 -26626.416831  -5892.594635      -.005525                    
P 21  18533.537192  -2440.912998 -18749.896532    -65.055374                    
V 21  17582.196972  17008.921547  14268.500353      -.026186                    
P 22  12223.840150 -20900.818912 -10646.875156    170.464923                    
V 22    456.041529  14213.000377 -27056.231548      -.008525                    
P 23 -23244.074965  -1235.937889  13058.525369    368.162590                    
V 23  14895.472905  -7314.528560  25454.444890      -.014661                    
P 24   7333.316393 -14005.689813 -21298.267198    293.648294                    
V 24  20242.766155  18216.528892  -4748.927766       .033176                    
P 26  18378.982835   7235.103590 -18491.722213    -61.838683                    
V 26 -21068.579117   6912.298470 -18388.659665      -.054265                    
P 27  20596.851952  16752.813976  -1576.981020    158.353328                    
V 27  -3550.676485     39.012126 -31958.803049       .033666                    
P 28 -12801.375153  19088.926492 -12578.461345    -14.360760                    
V 28   1120.993121 -16968.102509 -26197.319235       .010499                    
P 29  25595.588377  -4398.615183   5557.592246    125.177857                    
V 29  -5721.016906   4813.741115  30716.159166       .029231                    
P 30  15366.024583  -3314.156668  21006.689007    249.188141                    
V 30  -2868.130148  27485.064791   6367.072279       .034306                    
P 31   1906.402381 -16683.371769  20739.340277    -32.581864                    
V 31  20354.498590  15988.707856  11272.079212       .021674                    
P 32  -9740.365797 -16043.918904  19262.719034     -9.031681                    
V 32   7095.802000 -22571.471069 -15151.271754      -.085239                    
EOF
